P/2010 H4 (Scotti),e,2.3201,44.7572,179.5576,6.586395,0.0583086,0.26826110,203.9925,01/20.0/2020,2000,g 10.5,4.0
# From MPC 74637
P/2010 H5 (Scotti),e,14.0745,24.8112,175.3542,7.153121,0.0515182,0.15453346,183.7273,01/20.0/2020,2000,g 13.0,2.0
# From MPC 98558
P/2010 J3 (McMillan),e,13.2902,106.4070,157.5470,8.965796,0.0367131,0.72766684,125.9352,01/20.0/2020,2000,g 11.0,4.0
# From MPC 84315
P/2010 JC81 (WISE),e,38.6667,30.8350,12.4719,8.114225,0.0426416,0.77621390,136.3837,01/20.0/2020,2000,g  9.0,4.0
# From MPC 74248
P/2010 T2 (PANSTARRS),e,7.9688,59.3497,354.3017,5.488274,0.0766568,0.32190263,242.4299,01/20.0/2020,2000,g 11.5,4.0
# From MPC 98558
P/2010 TO20 (LINEAR-Grauer),e,2.4798,43.3023,266.9432,5.825827,0.0700919,0.05377437,287.2780,01/20.0/2020,2000,g  9.0,4.0
# From MPC 82316
P/2010 U1 (Boattini),e,8.2139,280.7208,85.8664,6.515309,0.0592654,0.24728358,216.4410,01/20.0/2020,2000,g  9.5,4.0
# From MPC118840
C/2010 U3 (Boattini),e,55.5136,43.0525,88.0827,3106,0.0000057,0.99728121,0.0000,02/26.3691/2019,2000,g  1.0,4.0
# From MPC 79021
P/2010 UH55 (Spacewatch),e,8.0596,233.1039,225.1715,6.647503,0.0575064,0.56406478,183.7453,01/20.0/2020,2000,g 11.0,4.0
# From MPC 75009
P/2010 WK (LINEAR),e,11.4001,11.3123,41.0314,5.757571,0.0713420,0.68957398,242.5283,01/20.0/2020,2000,g 14.5,2.0
# From MPC 82317
P/2011 A2 (Scotti),e,4.4754,54.6726,94.5635,3.104463,0.1801874,0.49938852,237.1502,01/20.0/2020,2000,g 16.5,4.0
# From MPC 84021
P/2011 C2 (Gibbs),e,10.8870,12.1163,161.1284,7.413378,0.0488292,0.26942994,143.3020,01/20.0/2020,2000,g  9.0,4.0
# From MPC 79866
P/2011 FR143 (Lemmon),e,15.9983,190.9457,350.1753,6.853211,0.0549367,0.45171128,178.0298,01/20.0/2020,2000,g 14.0,2.0
# From MPC 82317
P/2011 JB15 (Spacewatch-Boattini),e,19.1457,153.6230,110.8819,7.350147,0.0494607,0.31858458,144.3269,01/20.0/2020,2000,g  9.0,4.0
# From MPC118840
C/2011 KP36 (Spacewatch),e,18.9822,173.3328,180.5935,38.69757,0.0040943,0.87391777,5.4575,01/20.0/2020,2000,g  4.5,4.0
# From MPC 87913
P/2011 N1 (ASH),e,35.7034,77.6111,330.3684,6.251858,0.0630508,0.54320449,176.6491,01/20.0/2020,2000,g 11.5,4.0
# From MPC 75714
P/2011 NO1 (Elenin),e,15.2487,295.7975,263.8465,5.521648,0.0759628,0.77528962,249.3609,01/20.0/2020,2000,g 15.0,4.0
# From MPC 82318
P/2011 P1 (McNaught),e,5.6543,4.2488,348.8625,7.473377,0.0482424,0.32613699,167.7083,01/20.0/2020,2000,g  9.0,4.0
# From MPC 77806
P/2011 Q3 (McNaught),e,6.0551,32.0247,310.9545,4.970764,0.0889343,0.53222790,276.1555,01/20.0/2020,2000,g 13.5,4.0
# From MPC 90269
P/2011 R3 (Novichonok-Gerke),e,19.2274,189.8822,224.6153,4.786048,0.0941323,0.27093791,267.5464,01/20.0/2020,2000,g 11.0,4.0
# From MPC 98558
P/2011 S1 (Gibbs),e,2.6831,218.9301,192.6762,8.593730,0.0391229,0.19976802,77.6837,01/20.0/2020,2000,g  8.0,4.0
# From MPC115880
P/2011 U2 (Bressi),e,10.0541,263.8444,148.8379,4.961608,0.0891806,0.12739266,247.4685,01/20.0/2020,2000,g 10.0,4.0
# From MPC 79022
P/2011 UA134 (Spacewatch-PANSTARRS),e,10.4505,40.4681,32.4937,5.600159,0.0743710,0.62940058,221.8086,01/20.0/2020,2000,g 17.5,4.0
# From MPC 77406
P/2011 V1 (Boattini),e,7.3788,46.8654,269.2027,3.853513,0.1302923,0.55056547,61.8887,01/20.0/2020,2000,g 15.5,4.0
# From MPC 82718
P/2011 W1 (PANSTARRS),e,3.7185,161.7902,282.7213,4.659611,0.0979895,0.28674135,286.5219,01/20.0/2020,2000,g 11.5,4.0
# From MPC 79342
P/2011 Y2 (Boattini),e,6.3718,309.3650,131.9774,6.239357,0.0632404,0.70920602,181.6780,01/20.0/2020,2000,g 15.0,4.0
# From MPC 94669
P/2012 B1 (PANSTARRS),e,7.6189,36.1854,162.6025,6.524885,0.0591350,0.41047870,140.2933,01/20.0/2020,2000,g  9.0,4.0
# From MPC 78590
P/2012 C3 (PANSTARRS),e,9.0920,135.3677,344.9542,9.748681,0.0323806,0.63011148,359.9758,10/06.0/2011,2000,g 13.0,4.0
# From MPC 84931
P/2012 F2 (PANSTARRS),e,14.7346,227.0766,33.2022,6.326599,0.0619368,0.54313223,153.1590,01/20.0/2020,2000,g 12.0,4.0
# From MPC107683
C/2012 F3 (PANSTARRS),h,04/07.6418/2015,11.3356,164.5458,104.2481,1.004389,3.465177,2000,6.5,4.0
# From MPC 79344
P/2012 G1 (PANSTARRS),e,11.6925,282.5440,286.1149,4.172871,0.1156250,0.38072240,359.9500,06/01.0/2012,2000,g 15.0,4.0
# From MPC 80898
P/2012 K3 (Gibbs),e,13.1947,125.8105,172.1105,3.623968,0.1428656,0.42352569,22.2233,01/20.0/2020,2000,g 15.0,4.0
# From MPC112389
C/2012 LP26 (Palomar),h,08/18.4210/2015,25.3482,153.9415,145.2977,1.003192,6.541521,2000,6.5,4.0
# From MPC 88326
P/2012 NJ (La Sagra),e,84.6215,315.5712,338.3021,8.455866,0.0400836,0.84755676,111.3333,01/20.0/2020,2000,g 14.5,4.0
# From MPC 81470
P/2012 O1 (McNaught),e,7.4335,91.9851,238.2011,3.539224,0.1480274,0.59443110,47.9115,01/20.0/2020,2000,g 17.5,4.0
# From MPC 80899
P/2012 O2 (McNaught),e,24.4859,120.6815,183.3629,3.621425,0.1430161,0.53280741,37.0312,01/20.0/2020,2000,g 17.0,4.0
# From MPC 82720
P/2012 O3 (McNaught),e,16.6090,336.4022,344.6776,4.576732,0.1006632,0.64671404,273.3415,01/20.0/2020,2000,g 16.5,4.0
# From MPC 82720
P/2012 S2 (La Sagra),e,8.6877,51.1925,312.5224,4.408794,0.1064693,0.69103134,290.6949,01/20.0/2020,2000,g 17.0,4.0
# From MPC 82720
P/2012 SB6 (Lemmon),e,10.9286,8.2107,14.3850,3.825500,0.1317261,0.40480668,340.0494,01/20.0/2020,2000,g 14.0,4.0
# From MPC 82320
P/2012 T2 (PANSTARRS),e,12.5544,73.7371,310.4851,5.740368,0.0716629,0.16018599,176.8010,01/20.0/2020,2000,g 10.0,4.0
# From MPC 80900
P/2012 T3 (PANSTARRS),e,9.5676,114.4061,195.4172,6.153689,0.0645655,0.61694814,182.1941,01/20.0/2020,2000,g 15.0,4.0
# From MPC 87914
P/2012 TK8 (Tenagra),e,6.3403,288.9696,127.6283,4.134533,0.1172369,0.27426563,284.5527,01/20.0/2020,2000,g 13.0,4.0
# From MPC 82720
P/2012 U2 (PANSTARRS),e,10.7435,185.2541,228.3934,7.146385,0.0515911,0.49728181,135.6536,01/20.0/2020,2000,g 12.5,4.0
# From MPC 84024
P/2012 US27 (Siding Spring),e,39.3222,49.1679,0.8492,5.165664,0.0839489,0.64722596,214.0533,01/20.0/2020,2000,g 13.5,4.0
# From MPC 82721
P/2012 WA34 (Lemmon-PANSTARRS),e,6.1241,94.5088,352.7292,4.775518,0.0944438,0.33965307,240.9664,01/20.0/2020,2000,g 13.5,4.0
# From MPC 84024
P/2013 A2 (Scotti),e,3.3616,355.8205,134.5705,4.012313,0.1226343,0.45431469,311.8200,01/20.0/2020,2000,g 15.5,4.0
# From MPC 82721
P/2013 AL76 (Catalina),e,144.7860,145.9363,27.1554,6.498745,0.0594922,0.68609354,154.3025,01/20.0/2020,2000,g 16.0,4.0
# From MPC115880
C/2013 C2 (Tenagra),e,21.3378,247.5294,309.5111,16.02174,0.0153688,0.42861445,24.4265,01/20.0/2020,2000,g  4.0,4.0
# From MPC 88695
P/2013 EW90 (Tenagra),e,31.7853,160.3045,346.3872,4.116287,0.1180173,0.19499370,313.6179,01/20.0/2020,2000,g 12.0,4.0
# From MPC 91612
P/2013 G1 (Kowalski),e,5.4712,221.4288,51.3052,6.884179,0.0545665,0.51349841,121.6092,01/20.0/2020,2000,g 11.0,4.0
# From MPC 84025
P/2013 G4 (PANSTARRS),e,5.9162,339.6597,214.7297,4.438484,0.1054028,0.40989681,267.1010,01/20.0/2020,2000,g 15.0,4.0
# From MPC100277
C/2013 G9 (Tenagra),h,01/17.2140/2015,146.2397,35.7833,205.2507,1.001945,5.346204,2000,7.0,4.0
# From MPC 91613
P/2013 J2 (McNaught),e,15.5349,289.4273,37.7108,6.224323,0.0634696,0.65711800,148.4258,01/20.0/2020,2000,g 13.0,4.0
# From MPC 87066
P/2013 J4 (PANSTARRS),e,5.0352,84.0011,118.7706,2.475100,0.2531133,0.23099371,359.9443,11/04.0/2013,2000,g 14.0,4.0
# From MPC 86229
P/2013 N3 (PANSTARRS),e,2.1722,17.5336,323.8088,7.391284,0.0490483,0.59262287,106.2705,01/20.0/2020,2000,g 13.0,4.0
# From MPC 85834
P/2013 N5 (PANSTARRS),e,23.3945,187.1809,176.8808,6.801354,0.0555662,0.73126826,133.0494,01/20.0/2020,2000,g 17.0,4.0
# From MPC 87479
P/2013 O2 (PANSTARRS),e,13.3142,207.2073,214.0843,3.793649,0.1333885,0.44681092,294.8512,01/20.0/2020,2000,g 14.0,4.0
# From MPC 85834
P/2013 P1 (PANSTARRS),e,18.7150,160.6597,138.0083,8.564117,0.0393260,0.60614610,98.9459,01/20.0/2020,2000,g 12.0,4.0
# From MPC 94671
P/2013 R3 (Catalina-PANSTARRS),e,0.8653,342.0076,11.1467,3.034076,0.1864938,0.27484792,76.3603,01/20.0/2020,2000,g 14.0,4.0
# From unp
P/2013 R3-A (Catalina-PANSTARRS),e,0.8646,341.9745,11.1857,3.033935,0.1865068,0.27481724,76.3885,01/20.0/2020,2000,g  9.0,4.0
# From MPEC 2015-M77
P/2013 R3-B (Catalina-PANSTARRS),e,0.8659,342.0304,11.1205,3.034152,0.1864868,0.27486303,76.3453,01/20.0/2020,2000,g  9.0,4.0
# From MPC 85835
P/2013 T1 (PANSTARRS),e,24.2543,10.1025,346.0606,5.863578,0.0694161,0.62302168,164.1289,01/20.0/2020,2000,g 16.5,4.0
# From MPC 86643
P/2013 T2 (Schwartz),e,9.4564,0.8252,345.4473,3.487851,0.1513099,0.50102376,7.6362,01/20.0/2020,2000,g 16.0,4.0
# From MPC 88696
P/2013 TL117 (Lemmon),e,9.3646,3.3159,112.2500,3.608930,0.1437595,0.68910298,311.2353,01/20.0/2020,2000,g 17.5,4.0
# From MPC110080
C/2013 US10 (Catalina),h,11/16.4032/2015,148.8051,186.3246,340.5588,1.000603,0.823136,2000,4.4,4.0
# From MPC111767
C/2013 V4 (Catalina),e,67.8711,55.6239,40.3598,4446,0.0000033,0.99883415,0.0000,10/05.8838/2015,2000,g  6.0,4.0
# From MPC 91613
P/2013 W1 (PANSTARRS),e,4.6954,117.8491,1.3077,3.490305,0.1511503,0.59278985,324.5809,01/20.0/2020,2000,g 17.5,4.0
# From MPC109141
C/2013 W2 (PANSTARRS),e,4.8458,178.3457,304.1775,9.656997,0.0328429,0.54532508,61.9184,01/20.0/2020,2000,g 13.5,2.0
# From MPC111767
C/2013 X1 (PANSTARRS),h,04/19.6808/2016,163.1888,131.5957,165.1276,1.000349,1.319449,2000,10.5,2.0
# From MPC101095
P/2013 YG46 (Spacewatch),e,7.8567,48.8895,242.4447,3.276822,0.1661593,0.45483778,180.2514,01/20.0/2020,2000,g 10.0,4.0
# From MPC 89728
P/2014 A2 (Hill),e,24.5528,106.6256,356.3067,5.924775,0.0683433,0.64611792,156.0261,01/20.0/2020,2000,g 15.0,4.0
# From MPC 92981
P/2014 A3 (PANSTARRS),e,13.6839,230.3579,212.3172,4.639365,0.0986316,0.24509318,243.3082,01/20.0/2020,2000,g 12.0,4.0
# From MPC108592
C/2014 A4 (SONEAR),e,121.3738,29.6908,356.6019,3292,0.0000052,0.99873210,0.0000,09/04.2969/2015,2000,g  6.0,4.0
# From MPC 96865
C/2014 AA52 (Catalina),h,02/26.9862/2015,105.1285,330.3404,292.1480,1.000092,2.000691,2000,10.0,4.0
# From MPC115880
C/2014 B1 (Schwartz),h,09/10.2090/2017,28.3969,161.4023,345.8387,1.000276,9.556349,2000,4.0,4.0
# From MPC102095
